[{"OBJECT_NAME":"FLOCK 4G-2","OBJECT_ID":"2025-009BE","EPOCH":"2026-03-09T15:53:23.273952","MEAN_MOTION":15.2767526,"ECCENTRICITY":0.00031811,"INCLINATION":97.4044,"RA_OF_ASC_NODE":151.2221,"ARG_OF_PERICENTER":329.2677,"MEAN_ANOMALY":30.8376,"EPHEMERIS_TYPE":0,"CLASSIFICATION_TYPE":"U","NORAD_CAT_ID":62661,"ELEMENT_SET_NO":999,"REV_AT_EPOCH":12132,"BSTAR":0.00051068481,"MEAN_MOTION_DOT":0.00013752,"MEAN_MOTION_DDOT":0},{"OBJECT_NAME":"STARLINK-35893","OBJECT_ID":"2025-268J","EPOCH":"2026-03-09T04:14:12.463296","MEAN_MOTION":15.2758527,"ECCENTRICITY":0.00017748,"INCLINATION":43.0028,"RA_OF_ASC_NODE":349.7575,"ARG_OF_PERICENTER":257.0329,"MEAN_ANOMALY":103.0325,"EPHEMERIS_TYPE":0,"CLASSIFICATION_TYPE":"U","NORAD_CAT_ID":66565,"ELEMENT_SET_NO":999,"REV_AT_EPOCH":1788,"BSTAR":0.0010110269,"MEAN_MOTION_DOT":0.00027668,"MEAN_MOTION_DDOT":0}]
